IRIDIUM 126             
1 42809U 17039G   24155.69531144  .00000324  00000+0  10862-3 0  9991
2 42809  86.3948 304.3431 0002094  88.1593 271.9842 14.34218267363395
IRIDIUM 124             
1 42810U 17039H   24155.47923430  .00000684  00000+0  19727-3 0  9990
2 42810  86.4511 241.1516 0002358 105.7611 254.3850 14.43274167367845
IRIDIUM 128             
1 42811U 17039J   24155.47673494  .00000152  00000+0  47261-4 0  9998
2 42811  86.3959 335.9646 0001981  94.4438 265.6984 14.34216389363389
IRIDIUM 121             
1 42812U 17039K   24155.50503280  .00000090  00000+0  25197-4 0  9993
2 42812  86.3947 304.4450 0002150  92.8799 267.2643 14.34218500363233
IRIDIUM 133             
1 42955U 17061A   24155.50845268  .00000149  00000+0  46081-4 0  9991
2 42955  86.3962 336.0508 0002057  87.0203 273.1228 14.34216201348183
IRIDIUM 100             
1 42956U 17061B   24155.50210434  .00000124  00000+0  37321-4 0  9993
2 42956  86.3961 335.9895 0002023  86.3060 273.8367 14.34215861348188
IRIDIUM 122             
1 42957U 17061C   24155.47038761  .00000139  00000+0  42480-4 0  9999
2 42957  86.3960 336.0009 0002044  88.9950 271.1480 14.34216458348186
IRIDIUM 129             
1 42958U 17061D   24155.49576568  .00000148  00000+0  45845-4 0  9992
2 42958  86.3961 336.0495 0001941  87.6311 272.5107 14.34216534348208
